satname,norad_id,inclination_deg,eccentricity,mean_motion_rev_per_day,perigee_km,apogee_km,l1,l2
STARLINK-1316,45415,53.1563,0.0006248,15.38247081,447.0257142609871,455.55976966654544,1 45415U 20019BH  26154.14699493  .00056953  00000+0  14877-2 0  9990,2 45415  53.1563  89.9527 0006248  66.3950 293.7709 15.38247081343111
STARLINK-1286,45417,53.046,0.0001107,15.63411637,377.0628519124284,378.55861874103084,1 45417U 20019BK  26153.11401878  .00058548  00000+0  62439-3 0  9996,2 45417  53.0460  82.4226 0001107 160.9452 199.1603 15.63411637343366
STARLINK-1308,45419,53.0467,0.0007974,15.65318755,366.93936412068524,377.7049964213811,1 45419U 20019BM  26154.10478973  .00049526  00000+0  49057-3 0  9995,2 45419  53.0467  97.0380 0007974  33.5144 326.6374 15.65318755342998
STARLINK-1329,45531,53.0422,0.0003658,15.72502234,349.28647923117205,354.21006329562806,1 45531U 20025A   26153.80029213  .00068128  00000+0  50033-3 0  9997,2 45531  53.0422  22.5236 0003658 126.4333 233.7022 15.72502234338790
STARLINK-1338,45532,53.0449,0.0003713,15.67209125,364.38838285035763,369.3972419890606,1 45532U 20025B   26152.91554605  .00056192  00000+0  51546-3 0  9995,2 45532  53.0449  33.3278 0003713  89.0725 271.0716 15.67209125338564
STARLINK-1350,45535,53.0717,0.000148,15.38134685,450.61463067504883,452.6362403559615,1 45535U 20025E   26153.83466386  .00014071  00000+0  37890-3 0  9994,2 45535  53.0717 352.6304 0001480  90.9963 269.1210 15.38134685339256
STARLINK-1362,45538,53.1561,0.000372,15.36740175,453.21436664493376,458.2987834647756,1 45538U 20025H   26154.77005723 -.00121612  00000+0 -33815-2 0  9999,2 45538  53.1561  59.3507 0003720 124.4749 235.6607 15.36740175338383
STARLINK-1368,45540,53.1595,0.0004873,15.36796714,452.2588859988482,458.91903532010747,1 45540U 20025K   26153.02764482  .00044271  00000+0  12166-2 0  9992,2 45540  53.1595  67.8961 0004873 103.5328 256.6219 15.36796714338104
STARLINK-1371,45542,53.0441,0.0005072,15.61243131,380.6353315859724,387.4949094170088,1 45542U 20025M   26154.00002315  .00107926  00000+0  12388-2 0  9996,2 45542  53.0441  37.4618 0005072 113.4969 151.4310 15.61243131  5901
STARLINK-1372,45543,53.1565,0.0003918,15.37222024,451.65146449955955,457.0053844061613,1 45543U 20025N   26152.01298599  .00056420  00000+0  15242-2 0  9991,2 45543  53.1565  72.1800 0003918  90.2845 269.8608 15.37222024337050
STARLINK-1373,45544,53.0461,0.0003146,15.69162897,359.1725800355034,363.41302926859134,1 45544U 20025P   26153.83297628  .00055472  00000+0  47003-3 0  9992,2 45544  53.0461  34.1222 0003146  69.0124 291.1229 15.69162897338636
STARLINK-1327,45555,53.042,0.0004393,15.66660134,365.50467114086496,371.4322386935564,1 45555U 20025AA  26153.80335105  .00048442  00000+0  45541-3 0  9998,2 45555  53.0420  11.3370 0004393  66.4276 293.7200 15.66660134338943
STARLINK-1356,45564,53.043,5.28e-05,15.64820577,373.39832677901904,374.1113265559143,1 45564U 20025AK  26154.83335647 -.00069048  00000+0 -69544-3 0  9999,2 45564  53.0430  19.3640 0000528 103.1020 216.7974 15.64820577  5978
STARLINK-1357,45565,53.045,0.0005752,15.68825624,358.3816091950166,366.1357603908036,1 45565U 20025AL  26153.80133825  .00061588  00000+0  52790-3 0  9994,2 45565  53.0450 341.3131 0005752 107.5665 252.5979 15.68825624339370
STARLINK-1361,45567,53.0438,7.97e-05,15.61792203,381.94130253070216,383.01894490022187,1 45567U 20025AN  26154.82903176  .00108787  00000+0  12229-2 0  9998,2 45567  53.0438  17.5988 0000797 225.3642 134.7306 15.61792203338955
STARLINK-1366,45569,53.0283,0.0010774,16.14907861,226.2905618407949,240.53713160531333,1 45569U 20025AQ  26154.87218251  .01130411  87896-3  83837-3 0  9994,2 45569  53.0283 320.0370 0010774 296.1332  63.8594 16.14907861339746
STARLINK-1376,45570,53.1574,0.0004812,15.37564734,450.0258276158729,456.6004152127216,1 45570U 20025AR  26151.99129366  .00053566  00000+0  14321-2 0  9997,2 45570  53.1574  48.6995 0004812  89.2599 270.8956 15.37564734338282
STARLINK-1320,45572,53.0418,0.0007767,15.85401801,309.9948918660393,320.39231162278975,1 45572U 20025AT  26154.83335647  .00186693  00000+0  74930-3 0  9997,2 45572  53.0418 275.7470 0007767 320.7217   0.0649 15.85401801  5947
STARLINK-1321,45573,53.0429,0.000293,15.62551957,378.3082671053153,382.26870443997905,1 45573U 20025AU  26153.75374565  .00108180  00000+0  11807-2 0  9998,2 45573  53.0429   6.7842 0002930 127.2100 232.9181 15.62551957338706
STARLINK-1331,45578,53.0469,0.0003475,15.62563764,377.90589948886736,382.6029815400234,1 45578U 20025AZ  26154.86384637  .00090522  00000+0  99058-3 0  9992,2 45578  53.0469   8.2483 0003475  99.2066 260.9341 15.62563764339098
STARLINK-1333,45580,53.1566,0.0002642,15.34765443,459.8102190458476,463.42434520852294,1 45580U 20025BB  26153.84888815  .00045023  00000+0  13202-2 0  9991,2 45580  53.1566  41.3747 0002642 120.6726 239.4537 15.34765443338553
STARLINK-1335,45581,53.155,0.0003983,15.36073973,455.0096318428932,460.4550853739611,1 45581U 20025BC  26152.12760136  .00056647  00000+0  15878-2 0  9992,2 45581  53.1550  46.2276 0003983 111.2418 248.9011 15.36073973338320
STARLINK-1337,45582,53.046,0.0005154,15.73700201,344.86563366619066,351.7992783814616,1 45582U 20025BD  26154.81658522  .00083941  00000+0  58346-3 0  9991,2 45582  53.0460 358.1675 0005154  97.8971 262.2632 15.73700201339212
STARLINK-1347,45586,53.04,0.0002926,15.67943705,362.8129756494409,366.7589341626517,1 45586U 20025BH  26153.77191090  .00060096  00000+0  53454-3 0  9992,2 45586  53.0400 333.6346 0002926 120.9447 239.1856 15.67943705339462
STARLINK-1364,45589,53.0431,9.81e-05,15.68736739,361.8520328861887,363.17454847322006,1 45589U 20025BL  26153.84576815  .00052619  00000+0  45420-3 0  9991,2 45589  53.0431   9.9937 0000981 132.7180 227.3919 15.68736739338963
STARLINK-1365,45590,53.0469,0.0003728,15.57919136,391.1557803483083,396.2048473375098,1 45590U 20025BM  26152.13943931  .00094588  00000+0  12350-2 0  9997,2 45590  53.0469  52.0460 0003728  77.7769 282.3659 15.57919136338244
STARLINK-1443,45660,53.1349,0.0003211,15.32012225,467.6105512222821,472.0083024175865,1 45660U 20035D   26153.83589461  .00041431  00000+0  13263-2 0  9991,2 45660  53.1349  30.0662 0003211  89.9298 270.2072 15.32012225331782
STARLINK-1446,45663,53.0232,0.0002841,15.47320424,422.63583885606204,426.5011361140514,1 45663U 20035G   26154.59043554  .00036907  00000+0  71627-3 0  9997,2 45663  53.0232 310.0574 0002841 169.3829 190.7238 15.47320424332958
STARLINK-1448,45665,53.0446,0.0005223,15.67722191,361.8989481369308,368.9432689371097,1 45665U 20035J   26154.82620845  .00062256  00000+0  55819-3 0  9990,2 45665  53.0446 352.4822 0005223  89.5414 270.6200 15.67722191332375
STARLINK-1451,45668,53.0519,0.0002706,15.13854132,522.5916687282797,526.3273539602187,1 45668U 20035M   26152.02955725  .00024612  00000+0  13573-2 0  9995,2 45668  53.0519  48.6221 0002706  94.0849 266.0453 15.13854132331350
STARLINK-1452,45669,53.0266,0.0001894,15.57865101,392.5542893709098,395.1195130846954,1 45669U 20035N   26153.78457235  .00090268  00000+0  11821-2 0  9997,2 45669  53.0266 332.3914 0001894 274.2838  85.7957 15.57865101332575
STARLINK-1453,45670,53.0407,0.0001325,15.68149433,363.302839722508,365.08955802020955,1 45670U 20035P   26154.85893911  .00069778  00000+0  61401-3 0  9995,2 45670  53.0407 312.6257 0001325 241.2528 118.8354 15.68149433332837
STARLINK-1454,45671,53.0437,0.0002206,15.66085164,368.63098042632555,371.6083112584711,1 45671U 20035Q   26153.80589151  .00053912  00000+0  51788-3 0  9998,2 45671  53.0437 358.6812 0002206  53.6533 306.4686 15.66085164332198
STARLINK-1456,45673,53.0425,0.0004841,15.65027738,369.8906841392054,376.4272889133608,1 45673U 20035S   26153.83394909  .00050394  00000+0  50530-3 0  9993,2 45673  53.0425 353.0852 0004841 140.3626 219.7743 15.65027738332297
STARLINK-1458,45675,53.0468,0.0002715,15.56070467,397.20269363126135,400.882702207231,1 45675U 20035U   26154.00002315  .00139378  00000+0  19355-2 0  9991,2 45675  53.0468   6.5615 0002715  77.2102 159.3157 15.56070467  5896
STARLINK-1460,45676,53.1576,0.0003606,15.34588494,459.67644867500894,464.6096586497115,1 45676U 20035V   26153.82390222  .00047049  00000+0  13864-2 0  9990,2 45676  53.1576  28.6736 0003606 141.5857 218.5403 15.34588494331769
STARLINK-1392,45677,53.1531,0.0002873,15.37596719,451.2557343916151,455.1810311945683,1 45677U 20035W   26151.96769812  .00056865  00000+0  15177-2 0  9994,2 45677  53.1531  36.1503 0002873 134.7965 225.3273 15.37596719331534
STARLINK-1394,45679,53.0411,0.0004659,15.64731189,370.8661404185332,377.157792825632,1 45679U 20035Y   26153.77219086  .00045741  00000+0  46486-3 0  9999,2 45679  53.0411 343.6609 0004659 145.5095 214.6222 15.64731189332418
STARLINK-1402,45685,53.0417,0.0005389,15.57277759,391.8892024935849,399.1898710649257,1 45685U 20035AE  26153.81882970  .00046882  00000+0  63391-3 0  9990,2 45685  53.0417 333.9772 0005389 167.8845 192.2296 15.57277759332563
STARLINK-1404,45686,53.1579,0.0003666,15.4395111,431.96427375395615,436.959271173926,1 45686U 20035AF  26153.80159795  .00063561  00000+0  13727-2 0  9992,2 45686  53.1579   9.3981 0003666 153.4299 206.6896 15.43951110332077
STARLINK-1413,45689,53.1582,0.0002114,15.34534653,460.8569833528345,463.7491214069796,1 45689U 20035AJ  26153.79755494  .00045950  00000+0  13569-2 0  9997,2 45689  53.1582  13.4402 0002114 161.7196 198.3883 15.34534653331939
STARLINK-1417,45693,53.0509,0.0005661,15.16553485,512.3634171401045,520.1692606003735,1 45693U 20035AN  26153.78787421  .00026958  00000+0  13754-2 0  9999,2 45693  53.0509  27.3923 0005661 115.6809 244.4770 15.16553485331799
STARLINK-1420,45695,53.0458,0.0004127,15.67683864,362.7479080627745,368.3141316463625,1 45695U 20035AQ  26154.62420396  .00060218  00000+0  54119-3 0  9998,2 45695  53.0458 322.7455 0004127 117.3813 242.7623 15.67683864332785
